COSMOS 1975             
1 19573U 88093A   24333.46805623  .00015139  00000+0  72423-3 0  9991
2 19573  82.5254 222.2655 0015433  17.8638 342.3135 15.18765488948416
SL-14 R/B               
1 19574U 88093B   24334.18312888  .00001727  00000+0  19923-3 0  9992
2 19574  82.5297 118.7860 0021871 135.2144  37.4713 14.84932078953021
SL-16 R/B               
1 19650U 88102B   24333.69938839  .00000356  00000+0  20451-3 0  9998
2 19650  71.0005  51.9127 0014471 351.1643   8.9223 14.16044690860925
INTERCOSMOS 24          
1 20261U 89080A   24333.59542910  .00001979  00000+0  59307-3 0  9998
2 20261  82.6100  47.4227 1191209 293.6381  54.4165 12.58523089608148
SL-14 R/B               
1 20262U 89080C   24334.39372433  .00001778  00000+0  53380-3 0  9991
2 20262  82.5903 111.9258 1232174 168.0337 195.3135 12.50051796601578
DELTA 1 R/B             
1 20323U 89089B   24333.81268695  .00001444  00000+0  36977-3 0  9991
2 20323  97.1206 243.0370 0070360 152.1238 208.3757 14.50030361828209
ARIANE 40 R/B           
1 20443U 90005H   24334.42978285  .00001235  00000+0  41084-3 0  9998
2 20443  98.3751  36.3163 0010671 158.1086 202.0560 14.39344089826123
DELTA 2 R/B(1)          
1 20453U 90008B   24334.13973220  .00049166  00000+0  14970-2 0  9992
2 20453  35.6158 257.4000 0172003  23.3103 337.5310 15.19681236854536
COSMOS 2058             
1 20465U 90010A   24333.88753435  .00010333  00000+0  70066-3 0  9996
2 20465  82.4831 144.1294 0013476 100.2516 260.0232 15.06259107871991
SL-14 R/B               
1 20466U 90010B   24333.74085412  .00001440  00000+0  17421-3 0  9990
2 20466  82.5019 344.7859 0020993  39.0472 321.2254 14.82885748859414
SL-14 R/B               
1 20511U 90018B   24334.19090553  .00001455  00000+0  18241-3 0  9998
2 20511  82.5200 297.9930 0016406 177.3959 182.7344 14.81481512874738
HST                     
1 20580U 90037B   24333.66467875  .00014424  00000+0  61570-3 0  9994
2 20580  28.4698 320.4190 0002115  41.5169 318.5585 15.21396358702072
SL-16 R/B               
1 20625U 90046B   24333.68215636  .00000087  00000+0  69840-4 0  9991
2 20625  70.9976 196.5345 0016320 289.4727  70.4632 14.14907099782473
COSMOS 2084             
1 20663U 90055A   24333.83784819  .00011978  00000+0  86099-3 0  9999
2 20663  62.7892 119.8855 0091010 135.5710 225.2737 15.01315610866262
SL-6 R/B(2)             
1 20666U 90055D   24333.77338720  .00006962  00000+0  54811-3 0  9995
2 20666  62.7860  34.5950 0059670 160.9436 199.3914 15.00258639868202
SL-8 R/B                
1 20775U 90078B   24334.17561306  .00021001  00000+0  76217-3 0  9999
2 20775  82.9097 303.6085 0440663 117.7217 246.9417 14.68542413740464
SL-8 R/B                
1 21088U 91006B   24334.02231179  .00000305  00000+0  29133-3 0  9994
2 21088  82.9409 156.4594 0021312 259.0800 214.8300 13.77397746700234
OKEAN-3                 
1 21397U 91039A   24334.21600250  .00008778  00000+0  69064-3 0  9993
2 21397  82.5204  66.4752 0016161 112.1997 248.0944 15.00618302816204
COSMOS 2151             
1 21422U 91042A   24334.12174785  .00004472  00000+0  38196-3 0  9994
2 21422  82.4974 171.8193 0012293 185.9082 174.1997 14.97409579814609
SL-14 R/B               
1 21423U 91042B   24333.87987146  .00001526  00000+0  19278-3 0  9996
2 21423  82.4915 296.8126 0016527 336.9460  23.1010 14.81196763784102
ERS-1                   
1 21574U 91050A   24334.45376950  .00001054  00000+0  35487-3 0  9998
2 21574  98.7879 330.0131 0032872 140.4018 219.9578 14.38903054748793
ARIANE 40 R/B           
1 21610U 91050F   24334.15104307  .00001269  00000+0  39705-3 0  9996
2 21610  98.2699  31.1924 0004015  58.1579 302.0002 14.42305760752148
INTERCOSMOS 25          
1 21819U 91086A   24334.04442908  .00004741  00000+0  93616-3 0  9995
2 21819  82.6059 231.1125 1496789  39.3219 330.7438 12.09714137440347
SL-8 R/B                
1 21876U 92008B   24333.60518587  .00000222  00000+0  21284-3 0  9993
2 21876  82.9271 254.3525 0034896 358.8436 122.3110 13.75886811645326
SL-8 R/B                
1 21938U 92020B   24333.85945787  .00000345  00000+0  34193-3 0  9998
2 21938  82.9282 139.7360 0029614 156.0310 277.1450 13.75468248637092
USA 81                  
1 21949U 92023A   24333.66945246  .00000623  00000+0  22471-3 0  9997
2 21949  85.0098  40.2659 0002668  89.0858 271.0640 14.32096261 28085
COSMOS 2219             
1 22219U 92076A   24334.32811348 -.00000035  00000+0  66285-5 0  9996
2 22219  71.0601 270.7984 0018870 199.4493 160.5911 14.13958274652924
SL-16 R/B               
1 22220U 92076B   24333.81324707  .00000342  00000+0  19478-3 0  9999
2 22220  71.0001  89.6561 0010505  83.7026  84.4770 14.16743440655843
COSMOS 2221             
1 22236U 92080A   24333.64859485  .00005565  00000+0  52668-3 0  9998
2 22236  82.5061   4.5084 0013717 320.6086  39.4136 14.93421872711167
SL-16 R/B               
1 22285U 92093B   24334.14858602  .00000079  00000+0  64888-4 0  9995
2 22285  71.0213 261.4820 0006471 286.8578  73.1835 14.15333755647607
COSMOS 2228             
1 22286U 92094A   24334.33113617  .00006243  00000+0  58017-3 0  9993
2 22286  82.5171 321.8687 0020936  69.9627 290.3845 14.94051852727567
SL-16 R/B               
1 22566U 93016B   24334.14383122  .00000568  00000+0  31660-3 0  9997
2 22566  71.0065 112.8965 0012048 305.1197  54.8796 14.15202988636313
COSMOS 2242             
1 22626U 93024A   24334.14013983  .00005220  00000+0  49054-3 0  9994
2 22626  82.5197 351.0123 0018781  72.5573 287.7699 14.93619204711142
SL-16 R/B               
1 22803U 93059B   24333.83558598  .00000004  00000+0  25948-4 0  9992
2 22803  70.9901 273.4367 0018209 207.3609 152.6558 14.17111013613532
ARIANE 40 R/B           
1 22830U 93061H   24333.72870771  .00001044  00000+0  40161-3 0  9991
2 22830  98.5541  39.2907 0010157 217.7131 142.3342 14.32426199627381
COSMOS 2278             
1 23087U 94023A   24333.92860900  .00000172  00000+0  11498-3 0  9992
2 23087  71.0552  69.4473 0008671   2.6874 357.4293 14.14214530578956
SL-16 R/B               
1 23088U 94023B   24333.70051987  .00000014  00000+0  31766-4 0  9992
2 23088  70.9993 329.4404 0005753 279.0782  80.9690 14.14914858580179
SL-16 R/B               
1 23343U 94074B   24334.07097047  .00001570  00000+0  22131-3 0  9993
2 23343  97.7670  11.4751 0005435 303.5799  78.7749 14.78609365618630
SL-16 R/B               
1 23405U 94077B   24333.86354016  .00000028  00000+0  38825-4 0  9998
2 23405  70.9833 252.4259 0002607 210.0807 150.0167 14.15466541550319
ARIANE 40+ R/B          
1 23561U 95021B   24334.18325091  .00001093  00000+0  36662-3 0  9997
2 23561  98.5101  39.5290 0007888  95.9304 281.1912 14.39237394552496
SL-16 R/B               
1 23705U 95058B   24333.77708795  .00000226  00000+0  13990-3 0  9993
2 23705  71.0213  78.3674 0010523 114.3302 245.8921 14.15399895501925
SL-16 R/B               
1 24298U 96051B   24334.30412633 -.00000079  00000+0 -15992-4 0  9991
2 24298  70.7866  79.8737 0013570 100.6901 259.5747 14.12455474456196
ORBVIEW 2 (SEASTAR)     
1 24883U 97037A   24333.73178080  .00001213  00000+0  44259-3 0  9993
2 24883  98.7979 116.4317 0002251  19.2654 340.8615 14.34936518441635
SL-16 R/B               
1 25400U 98043G   24334.10280201  .00000335  00000+0  15943-3 0  9990
2 25400  98.7644 274.9102 0008826 288.1019  71.9199 14.25875740372864
SL-16 R/B               
1 25407U 98045B   24333.73265616 -.00000017  00000+0  15624-4 0  9995
2 25407  71.0113  81.3982 0007329 356.6356   3.4717 14.16081120361139
ISS (ZARYA)             
1 25544U 98067A   24334.72054964  .00022304  00000+0  39684-3 0  9996
2 25544  51.6397 215.2903 0006647 281.7608 118.0103 15.50042029484222
CZ-4B R/B               
1 25732U 99025C   24333.96577757  .00000333  00000+0  18243-3 0  9991
2 25732  98.7306  16.5923 0036262 242.3530 247.7463 14.18094455322155
OKEAN-O                 
1 25860U 99039A   24334.11298331  .00002230  00000+0  30756-3 0  9995
2 25860  98.0148  26.0846 0001790  77.9810 282.1602 14.79186826365623
SL-16 R/B               
1 25861U 99039B   24334.42083809  .00002043  00000+0  27202-3 0  9996
2 25861  98.0669  21.4856 0014359 329.6588  30.3791 14.80745255368114
DELTA 2 R/B             
1 25876U 99041E   24333.67294030  .00002947  00000+0  51908-3 0  9994
2 25876  51.7629 359.6822 0512428  55.1396 309.6620 14.09537294297240
HELIOS 1B               
1 25977U 99064A   24334.40821293  .00004477  00000+0  52611-3 0  9992
2 25977  98.2187 211.4496 0002325 106.6440 253.5029 14.85420724347431
TERRA                   
1 25994U 99068A   24334.47246824  .00001734  00000+0  36844-3 0  9996
2 25994  98.0284  32.9699 0002118 173.1421 316.8420 14.60269194327289
SL-16 R/B               
1 26070U 00006B   24334.33432261  .00000225  00000+0  13872-3 0  9993
2 26070  71.0024 356.2459 0016385 178.2658 181.8524 14.15714224282670
TITAN 4B R/B            
1 26474U 00047B   24333.81235853  .00009429  00000+0  65984-3 0  9992
2 26474  67.9918 265.9899 0048065 209.3393 150.5054 15.04678801322709
ENVISAT                 
1 27386U 02009A   24334.36385410  .00000572  00000+0  20006-3 0  9997
2 27386  98.3071 289.9157 0001263  80.6104  92.4251 14.38772526192323
IDEFIX & ARIANE 42P R/B 
1 27422U 02021B   24333.82643485  .00001071  00000+0  42740-3 0  9995
2 27422  98.5434 268.3489 0012868 116.0446 244.2063 14.30498936177406
AQUA                    
1 27424U 02022A   24334.49047781  .00003583  00000+0  74955-3 0  9992
2 27424  98.3519 284.7603 0001024  39.5070  27.6448 14.60421377200836
CZ-4B R/B               
1 27432U 02024C   24333.58706493  .00000289  00000+0  17280-3 0  9992
2 27432  98.9547  16.5402 0049220 265.2582 258.8818 14.14414075163345
MIDORI II (ADEOS-II)    
1 27597U 02056A   24334.26629928  .00001116  00000+0  46116-3 0  9992
2 27597  98.7132 280.4612 0000397  25.6874 334.4327 14.28723966143806
